[{"OBJECT_NAME":"TEVEL2-4","OBJECT_ID":"2025-052D","EPOCH":"2026-03-09T16:39:37.129536","MEAN_MOTION":15.30925813,"ECCENTRICITY":0.0004733,"INCLINATION":97.4009,"RA_OF_ASC_NODE":325.1237,"ARG_OF_PERICENTER":95.3468,"MEAN_ANOMALY":264.8313,"EPHEMERIS_TYPE":0,"CLASSIFICATION_TYPE":"U","NORAD_CAT_ID":63213,"ELEMENT_SET_NO":999,"REV_AT_EPOCH":5487,"BSTAR":0.00070362503,"MEAN_MOTION_DOT":0.0002099,"MEAN_MOTION_DDOT":0},{"OBJECT_NAME":"STARLINK-35322","OBJECT_ID":"2025-253P","EPOCH":"2026-03-09T09:52:15.199392","MEAN_MOTION":15.27571257,"ECCENTRICITY":0.00027471,"INCLINATION":42.9972,"RA_OF_ASC_NODE":213.9277,"ARG_OF_PERICENTER":285.6819,"MEAN_ANOMALY":74.3729,"EPHEMERIS_TYPE":0,"CLASSIFICATION_TYPE":"U","NORAD_CAT_ID":66332,"ELEMENT_SET_NO":999,"REV_AT_EPOCH":2020,"BSTAR":0.0011007604,"MEAN_MOTION_DOT":0.00030146,"MEAN_MOTION_DDOT":0}]
